IRIDIUM 8 [+]           
1 24792U 97020A   17050.39758457  .00000139  00000-0  42723-4 0  9998
2 24792  86.3986   7.9262 0002221  87.2133 272.9317 14.34215776 36317
IRIDIUM 7 [+]           
1 24793U 97020B   17050.39119764  .00000147  00000-0  45366-4 0  9996
2 24793  86.3991   8.2052 0002166  86.5538 273.5905 14.34215791 36311
IRIDIUM 6 [+]           
1 24794U 97020C   17050.38480162  .00000144  00000-0  44224-4 0  9998
2 24794  86.3989   8.1413 0002174  85.0872 275.0572 14.34216859 36316
IRIDIUM 5 [+]           
1 24795U 97020D   17050.37870064  .00000199  00000-0  63997-4 0  9990
2 24795  86.3990   8.1542 0002076  84.7513 275.3920 14.34209699 36393
IRIDIUM 4 [-]           
1 24796U 97020E   17050.46609705  .00000092  00000-0  25446-4 0  9992
2 24796  86.3986   7.1336 0002217  88.6340  50.5156 14.35139225 36423
IRIDIUM 914 [-]         
1 24836U 97030A   17050.44679914  .00000156  00000-0  44298-4 0  9992
2 24836  86.3946  24.2106 0003487 109.5389 250.6186 14.38739551 32013
IRIDIUM 12 [+]          
1 24837U 97030B   17050.56110579 -.00000038  00000-0 -20486-4 0  9997
2 24837  86.3941  39.2579 0002102  86.0278  52.8781 14.34214805 30082
IRIDIUM 10 [+]          
1 24839U 97030D   17050.47358998 -.00000030  00000-0 -17695-4 0  9998
2 24839  86.3940  39.2749 0002128  86.5710  25.9637 14.34214786 30085
IRIDIUM 13 [+]          
1 24840U 97030E   17050.61031377 -.00000028  00000-0 -17133-4 0  9999
2 24840  86.3942  39.3552 0001984  89.0368 271.1056 14.34214497 30098
IRIDIUM 16 [-]          
1 24841U 97030F   17050.49581036  .00000132  00000-0  38277-4 0  9994
2 24841  86.4024  39.2963 0001568  16.1945 343.9302 14.36689866 30681
IRIDIUM 911 [-]         
1 24842U 97030G   17050.59043765  .00000156  00000-0  38806-4 0  9992
2 24842  86.4449  40.1108 0016426 117.5621 242.7251 14.44932598 35968
IRIDIUM 15 [+]          
1 24869U 97034A   17050.51217963 -.00000036  00000-0 -19923-4 0  9998
2 24869  86.3915  71.3040 0002169  82.5313 277.6129 14.34217447 27042
IRIDIUM 17 [-]          
1 24870U 97034B   17050.59530893  .00000116  00000-0  33204-4 0  9993
2 24870  86.3926  69.4570 0001107 147.0609 213.0657 14.35737244 27300
IRIDIUM 920 [-]         
1 24871U 97034C   17050.61522376  .00000111  00000-0  29197-4 0  9995
2 24871  86.3942  55.9071 0012239  17.4856 342.6762 14.39452068 29442
IRIDIUM 18 [+]          
1 24872U 97034D   17050.56291502 -.00000037  00000-0 -20101-4 0  9999
2 24872  86.3924  71.2513 0002115  85.2543 274.8895 14.34216085 27053
IRIDIUM 921 [-]         
1 24873U 97034E   17050.64263541  .00000591  00000-0  33098-4 0  9993
2 24873  86.3948 121.5579 0010375  89.8043 270.4384 15.11117199 70340
IRIDIUM 26 [-]          
1 24903U 97043A   17050.62511038  .00000075  00000-0  19309-4 0  9998
2 24903  86.3974 304.0292 0002055  82.1125 337.6672 14.35238834 21118
IRIDIUM 25 [+]          
1 24904U 97043B   17050.65073668  .00000166  00000-0  52336-4 0  9992
2 24904  86.3965 304.5787 0002056  80.6670 279.4758 14.34218153 20985
IRIDIUM 46 [+]          
1 24905U 97043C   17050.66338357  .00000153  00000-0  47395-4 0  9998
2 24905  86.2828 304.6066 0001907  87.8547 272.2867 14.34222263 20989
IRIDIUM 23 [+]          
1 24906U 97043D   17050.66278845  .00000154  00000-0  47811-4 0  9998
2 24906  86.3979 304.6048 0002187  81.5545 308.0047 14.34223427 20990
IRIDIUM 22 [+]          
1 24907U 97043E   17050.63168678  .00000167  00000-0  52561-4 0  9990
2 24907  86.3977 305.2421 0002108  83.4496 276.6940 14.34225093 20982
DUMMY MASS 1 [-]        
1 24925U 97048A   17050.53881097  .00000084  00000-0  65322-5 0  9999
2 24925  86.3330  97.6818 0009427  96.5540 263.6758 14.85119842 54129
DUMMY MASS 2 [-]        
1 24926U 97048B   17050.22199359  .00000078  00000-0  58577-5 0  9996
2 24926  86.3331  98.9249 0010175 103.3851 256.8507 14.84888043 53925
IRIDIUM 29 [-]          
1 24944U 97051A   17049.25965062 -.00000094  00000-0 -40244-4 0  9994
2 24944  86.4001 336.6327 0002256  92.2247 267.9207 14.34619853 17370
IRIDIUM 32 [+]          
1 24945U 97051B   17050.31170168  .00000196  00000-0  63017-4 0  9993
2 24945  86.3997 336.3883 0002218  84.2217 275.9232 14.34216994 17527
IRIDIUM 33 [-]          
1 24946U 97051C   17050.63803311  .00000099  00000-0  28692-4 0  9994
2 24946  86.3915 335.9440 0005786 266.4266  93.6268 14.33537547 17199
IRIDIUM 28 [-]          
1 24948U 97051E   17050.32741811  .00000100  00000-0  27716-4 0  9997
2 24948  86.4005 335.4870 0001915  79.5403 280.6009 14.35532390 17677
IRIDIUM 30 [+]          
1 24949U 97051F   17050.37511767  .00000023  00000-0  12457-5 0  9999
2 24949  86.4022 336.4730 0001811  68.1609 291.9779 14.34219432 17510
IRIDIUM 31 [+]          
1 24950U 97051G   17050.29901771  .00000202  00000-0  65062-4 0  9998
2 24950  86.3997 336.4867 0002123  87.5582 272.5857 14.34216872 17512
IRIDIUM 19 [+]          
1 24965U 97056A   17050.49278461  .00000133  00000-0  40354-4 0  9994
2 24965  86.3988   7.8974 0002192  86.9434 273.2012 14.34214611 15687
IRIDIUM 35 [+]          
1 24966U 97056B   17050.36591100  .00000149  00000-0  46222-4 0  9996
2 24966  86.3986   7.9450 0002194  86.5527 273.5920 14.34215907 15643
IRIDIUM 36 [-]          
1 24967U 97056C   17050.40629154  .00000112  00000-0  31996-4 0  9995
2 24967  86.4000   7.0784 0002125  91.0957 269.0483 14.35584628 15964
IRIDIUM 37 [+]          
1 24968U 97056D   17050.48011818  .00000155  00000-0  48300-4 0  9990
2 24968  86.3989   8.0804 0002211  87.6360 272.5088 14.34212101 15669
IRIDIUM 34 [+]          
1 24969U 97056E   17050.42932735  .00000147  00000-0  45332-4 0  9998
2 24969  86.3989   8.0381 0002157  87.6020 272.5423 14.34213684 15651
IRIDIUM 43 [+]          
1 25039U 97069A   17050.55655928 -.00000015  00000-0 -12471-4 0  9995
2 25039  86.3922  71.1892 0002028  92.9676 267.1752 14.34217057  9452
IRIDIUM 41 [+]          
1 25040U 97069B   17050.55022255 -.00000046  00000-0 -23616-4 0  9995
2 25040  86.3922  71.1386 0002116  84.0984 276.0453 14.34216195  9453
IRIDIUM 40 [+]          
1 25041U 97069C   17050.57559751 -.00000009  00000-0 -10457-4 0  9992
2 25041  86.3919  71.3582 0002075 119.4230 240.7173 14.34217907  9472
IRIDIUM 39 [B]          
1 25042U 97069D   17050.59492707  .00000150  00000-0  36361-4 0  9999
2 25042  86.3883  69.3878 0018487 350.6865   9.3991 14.46128799  9723
IRIDIUM 38 [-]          
1 25043U 97069E   17050.59923232  .00000124  00000-0  36012-4 0  9996
2 25043  86.3924  68.4407 0001338  52.3803 307.7515 14.36009980  9853
IRIDIUM 42 [-]          
1 25077U 97077A   17050.58495783  .00000112  00000-0  32788-4 0  9999
2 25077  86.3926  71.0924 0002103  87.2724 272.8712 14.34526506  5332
IRIDIUM 44 [-]          
1 25078U 97077B   17050.55596597  .00000121  00000-0  33290-4 0  9991
2 25078  86.3927  60.9648 0000875  43.4182 316.7084 14.38098647  6728
IRIDIUM 45 [+]          
1 25104U 97082A   17050.29268856  .00000212  00000-0  68592-4 0  9996
2 25104  86.3996 336.5233 0001935  53.0257 307.1115 14.34219196  3472
IRIDIUM 24 [-]          
1 25105U 97082B   17050.66443860  .00000082  00000-0  19680-4 0  9997
2 25105  86.3912 285.0929 0012367  21.7095 338.4625 14.39835783  5942
IRIDIUM 47 [+]          
1 25106U 97082C   17050.66979692  .00000154  00000-0  48009-4 0  9992
2 25106  86.3963 304.4457 0002214  81.9536 278.1911 14.34219815  3526
IRIDIUM 49 [+]          
1 25108U 97082E   17050.62455639  .00000126  00000-0  38027-4 0  9998
2 25108  86.3966 304.5641 0002158  81.6439 339.7641 14.34218526  3525
IRIDIUM 52 [+]          
1 25169U 98010A   17050.57228645 -.00000023  00000-0 -15397-4 0  9999
2 25169  86.3945  39.5442 0002085  86.8581 273.2854 14.34214857994921
IRIDIUM 56 [+]          
1 25170U 98010B   17050.56602881  .00000034  00000-0  49143-5 0  9995
2 25170  86.3942  39.6456 0002128  84.1715 275.9723 14.34212762994909
IRIDIUM 54 [+]          
1 25171U 98010C   17050.45811446 -.00000035  00000-0 -19637-4 0  9990
2 25171  86.3945  39.6123 0002093  87.0387 273.1048 14.34214855995054
IRIDIUM 50 [+]          
1 25172U 98010D   17050.55957874 -.00000029  00000-0 -17401-4 0  9998
2 25172  86.3945  39.5267 0002174  88.0486 272.0959 14.34215102994902
IRIDIUM 53 [+]          
1 25173U 98010E   17050.57865615  .00000033  00000-0  48834-5 0  9990
2 25173  86.3949  39.5241 0002168  90.7460 269.3984 14.34215945994917
IRIDIUM 51 [S]          
1 25262U 98018A   17050.38510406  .00000148  00000-0  45830-4 0  9990
2 25262  86.4004   8.2471 0002551  88.7230 271.4258 14.34216261994274
IRIDIUM 61 [+]          
1 25263U 98018B   17050.41675515  .00000140  00000-0  42823-4 0  9999
2 25263  86.3989   8.0722 0002209  86.6153 273.5295 14.34212899989983
IRIDIUM 55 [+]          
1 25272U 98019A   17050.27998923  .00000165  00000-0  52024-4 0  9996
2 25272  86.3997 336.3107 0002197  83.0787 277.0659 14.34216789989161
IRIDIUM 57 [-]          
1 25273U 98019B   17050.25073069  .00000073  00000-0  19084-4 0  9997
2 25273  86.4004 336.6260 0002246  90.0352 270.1101 14.34256755989169
IRIDIUM 58 [+]          
1 25274U 98019C   17050.33072720  .00000193  00000-0  61862-4 0  9994
2 25274  86.4003 336.7858 0002261  82.5628 277.5824 14.34217352989176
IRIDIUM 59 [+]          
1 25275U 98019D   17050.33706359  .00000184  00000-0  58730-4 0  9997
2 25275  86.3998 336.6426 0002258  85.7417 274.4037 14.34218359989176
IRIDIUM 60 [+]          
1 25276U 98019E   17050.34341172  .00000188  00000-0  59921-4 0  9994
2 25276  86.3995 336.2643 0002178  83.3275 276.8168 14.34216649989179
IRIDIUM 62 [+]          
1 25285U 98021A   17050.58386279  .00000013  00000-0 -23256-5 0  9991
2 25285  86.3930 273.0625 0002133  85.1045 275.0394 14.34222358988166
IRIDIUM 63 [-]          
1 25286U 98021B   17050.62403755  .00000062  00000-0  14781-4 0  9991
2 25286  86.3962 273.4490 0002282  92.6901 278.7566 14.34641378988196
